{
  "type": "FeatureCollection",
  "features": [
    {
      "type": "Feature",
      "properties": {
        "norad_id": 36211,
        "name": "FENGYUN 1C DEB",
        "group": "fengyun-1c-debris",
        "lat": -70.69340521218582,
        "lon": -4.381968418635586,
        "alt_km": 644.9065665400585,
        "timestamp": "2025-12-02T21:34:01.559065+00:00",
        "meta_object_name": "FENGYUN 1C DEB",
        "meta_object_id": "1999-025DUL",
        "meta_epoch": "2025-12-01T17:16:14.280672",
        "meta_mean_motion": 14.25927251,
        "meta_eccentricity": 0.02665414,
        "meta_inclination": 98.503,
        "meta_ra_of_asc_node": 329.193,
        "meta_arg_of_pericenter": 261.2872,
        "meta_mean_anomaly": 95.8036,
        "meta_ephemeris_type": 0,
        "meta_classification_type": "U",
        "meta_norad_cat_id": 36211,
        "meta_element_set_no": 999,
        "meta_rev_at_epoch": 94212,
        "meta_bstar": 0.00059239052,
        "meta_mean_motion_dot": 1.999e-05,
        "meta_mean_motion_ddot": 0,
        "tle_line1": "1 36211U 99025DUL 25335.71960973  .00001999  00000+0  59239-3 0  9996",
        "tle_line2": "2 36211  98.5030 329.1930 0266541 261.2872  95.8036 14.25927251942126"
      },
      "geometry": {
        "type": "Point",
        "coordinates": [
          -4.381968418635586,
          -70.69340521218582
        ]
      }
    },
    {
      "type": "Feature",
      "properties": {
        "norad_id": 36216,
        "name": "FENGYUN 1C DEB",
        "group": "fengyun-1c-debris",
        "lat": -9.0708388224831,
        "lon": 176.00543536894972,
        "alt_km": 859.4748465875,
        "timestamp": "2025-12-02T21:34:01.559075+00:00",
        "meta_object_name": "FENGYUN 1C DEB",
        "meta_object_id": "1999-025DUR",
        "meta_epoch": "2025-11-30T07:45:09.462816",
        "meta_mean_motion": 14.18828185,
        "meta_eccentricity": 0.00455211,
        "meta_inclination": 98.6094,
        "meta_ra_of_asc_node": 354.8906,
        "meta_arg_of_pericenter": 53.4924,
        "meta_mean_anomaly": 307.0432,
        "meta_ephemeris_type": 0,
        "meta_classification_type": "U",
        "meta_norad_cat_id": 36216,
        "meta_element_set_no": 999,
        "meta_rev_at_epoch": 64196,
        "meta_bstar": 0.00033028737,
        "meta_mean_motion_dot": 6.52e-06,
        "meta_mean_motion_ddot": 0,
        "tle_line1": "1 36216U 99025DUR 25334.32302619  .00000652  00000+0  33029-3 0  9998",
        "tle_line2": "2 36216  98.6094 354.8906 0045521  53.4924 307.0432 14.18828185641966"
      },
      "geometry": {
        "type": "Point",
        "coordinates": [
          176.00543536894972,
          -9.0708388224831
        ]
      }
    },
    {
      "type": "Feature",
      "properties": {
        "norad_id": 36218,
        "name": "FENGYUN 1C DEB",
        "group": "fengyun-1c-debris",
        "lat": 49.98801583634702,
        "lon": 165.80695594340833,
        "alt_km": 649.0217472006016,
        "timestamp": "2025-12-02T21:34:01.559086+00:00",
        "meta_object_name": "FENGYUN 1C DEB",
        "meta_object_id": "1999-025DUT",
        "meta_epoch": "2025-12-02T00:06:44.666496",
        "meta_mean_motion": 14.70742765,
        "meta_eccentricity": 0.00735595,
        "meta_inclination": 99.078,
        "meta_ra_of_asc_node": 175.792,
        "meta_arg_of_pericenter": 328.8647,
        "meta_mean_anomaly": 30.8208,
        "meta_ephemeris_type": 0,
        "meta_classification_type": "U",
        "meta_norad_cat_id": 36218,
        "meta_element_set_no": 999,
        "meta_rev_at_epoch": 58985,
        "meta_bstar": 0.0012301287,
        "meta_mean_motion_dot": 7.766e-05,
        "meta_mean_motion_ddot": 0,
        "tle_line1": "1 36218U 99025DUT 25336.00468364  .00007766  00000+0  12301-2 0  9999",
        "tle_line2": "2 36218  99.0780 175.7920 0073559 328.8647  30.8208 14.70742765589852"
      },
      "geometry": {
        "type": "Point",
        "coordinates": [
          165.80695594340833,
          49.98801583634702
        ]
      }
    },
    {
      "type": "Feature",
      "properties": {
        "norad_id": 36224,
        "name": "FENGYUN 1C DEB",
        "group": "fengyun-1c-debris",
        "lat": -77.67277646833608,
        "lon": 69.44935882049909,
        "alt_km": 872.6069768657426,
        "timestamp": "2025-12-02T21:34:01.559096+00:00",
        "meta_object_name": "FENGYUN 1C DEB",
        "meta_object_id": "1999-025DUZ",
        "meta_epoch": "2025-11-29T08:57:37.836576",
        "meta_mean_motion": 14.12752936,
        "meta_eccentricity": 0.01152574,
        "meta_inclination": 98.7822,
        "meta_ra_of_asc_node": 20.9694,
        "meta_arg_of_pericenter": 29.9613,
        "meta_mean_anomaly": 330.809,
        "meta_ephemeris_type": 0,
        "meta_classification_type": "U",
        "meta_norad_cat_id": 36224,
        "meta_element_set_no": 999,
        "meta_rev_at_epoch": 64243,
        "meta_bstar": 0.00011198011,
        "meta_mean_motion_dot": 1.78e-06,
        "meta_mean_motion_ddot": 0,
        "tle_line1": "1 36224U 99025DUZ 25333.37335459  .00000178  00000+0  11198-3 0  9995",
        "tle_line2": "2 36224  98.7822  20.9694 0115257  29.9613 330.8090 14.12752936642438"
      },
      "geometry": {
        "type": "Point",
        "coordinates": [
          69.44935882049909,
          -77.67277646833608
        ]
      }
    },
    {
      "type": "Feature",
      "properties": {
        "norad_id": 36225,
        "name": "FENGYUN 1C DEB",
        "group": "fengyun-1c-debris",
        "lat": -1.0256938791685601,
        "lon": 97.06056220206113,
        "alt_km": 530.4063502365871,
        "timestamp": "2025-12-02T21:34:01.559106+00:00",
        "meta_object_name": "FENGYUN 1C DEB",
        "meta_object_id": "1999-025DVA",
        "meta_epoch": "2025-11-30T13:43:01.365312",
        "meta_mean_motion": 15.04722119,
        "meta_eccentricity": 0.004439,
        "meta_inclination": 98.8175,
        "meta_ra_of_asc_node": 94.2475,
        "meta_arg_of_pericenter": 329.7202,
        "meta_mean_anomaly": 30.1456,
        "meta_ephemeris_type": 0,
        "meta_classification_type": "U",
        "meta_norad_cat_id": 36225,
        "meta_element_set_no": 999,
        "meta_rev_at_epoch": 66589,
        "meta_bstar": 0.0026395,
        "meta_mean_motion_dot": 0.00038099,
        "meta_mean_motion_ddot": 0,
        "tle_line1": "1 36225U 99025DVA 25334.57154358  .00038099  00000+0  26395-2 0  9993",
        "tle_line2": "2 36225  98.8175  94.2475 0044390 329.7202  30.1456 15.04722119665899"
      },
      "geometry": {
        "type": "Point",
        "coordinates": [
          97.06056220206113,
          -1.0256938791685601
        ]
      }
    },
    {
      "type": "Feature",
      "properties": {
        "norad_id": 36229,
        "name": "FENGYUN 1C DEB",
        "group": "fengyun-1c-debris",
        "lat": 34.97515834787164,
        "lon": -173.13072734311768,
        "alt_km": 895.1952082203306,
        "timestamp": "2025-12-02T21:34:01.559116+00:00",
        "meta_object_name": "FENGYUN 1C DEB",
        "meta_object_id": "1999-025DVE",
        "meta_epoch": "2025-12-01T19:47:51.905184",
        "meta_mean_motion": 14.07099471,
        "meta_eccentricity": 0.0102479,
        "meta_inclination": 100.9247,
        "meta_ra_of_asc_node": 193.3395,
        "meta_arg_of_pericenter": 151.6088,
        "meta_mean_anomaly": 209.071,
        "meta_ephemeris_type": 0,
        "meta_classification_type": "U",
        "meta_norad_cat_id": 36229,
        "meta_element_set_no": 999,
        "meta_rev_at_epoch": 63102,
        "meta_bstar": 0.001857462,
        "meta_mean_motion_dot": 3.2e-05,
        "meta_mean_motion_ddot": 0,
        "tle_line1": "1 36229U 99025DVE 25335.82490631  .00003200  00000+0  18575-2 0  9990",
        "tle_line2": "2 36229 100.9247 193.3395 0102479 151.6088 209.0710 14.07099471631025"
      },
      "geometry": {
        "type": "Point",
        "coordinates": [
          -173.13072734311768,
          34.97515834787164
        ]
      }
    },
    {
      "type": "Feature",
      "properties": {
        "norad_id": 36230,
        "name": "FENGYUN 1C DEB",
        "group": "fengyun-1c-debris",
        "lat": -47.19838009324905,
        "lon": 62.46635253449897,
        "alt_km": 1117.319317400108,
        "timestamp": "2025-12-02T21:34:01.559126+00:00",
        "meta_object_name": "FENGYUN 1C DEB",
        "meta_object_id": "1999-025DVF",
        "meta_epoch": "2025-12-01T10:53:13.084224",
        "meta_mean_motion": 13.75193497,
        "meta_eccentricity": 0.02182616,
        "meta_inclination": 99.5257,
        "meta_ra_of_asc_node": 50.5767,
        "meta_arg_of_pericenter": 171.2335,
        "meta_mean_anomaly": 189.2724,
        "meta_ephemeris_type": 0,
        "meta_classification_type": "U",
        "meta_norad_cat_id": 36230,
        "meta_element_set_no": 999,
        "meta_rev_at_epoch": 61731,
        "meta_bstar": 0.0022005072,
        "meta_mean_motion_dot": 2.463e-05,
        "meta_mean_motion_ddot": 0,
        "tle_line1": "1 36230U 99025DVF 25335.45362366  .00002463  00000+0  22005-2 0  9997",
        "tle_line2": "2 36230  99.5257  50.5767 0218261 171.2335 189.2724 13.75193497617315"
      },
      "geometry": {
        "type": "Point",
        "coordinates": [
          62.46635253449897,
          -47.19838009324905
        ]
      }
    }
  ]
}